[{"OBJECT_NAME":"STARLINK-30039","OBJECT_ID":"2023-107M","EPOCH":"2026-03-09T22:00:01.999584","MEAN_MOTION":15.27585284,"ECCENTRICITY":0.00016935,"INCLINATION":43.0004,"RA_OF_ASC_NODE":335.0485,"ARG_OF_PERICENTER":269.332,"MEAN_ANOMALY":289.7013,"EPHEMERIS_TYPE":0,"CLASSIFICATION_TYPE":"U","NORAD_CAT_ID":57468,"ELEMENT_SET_NO":999,"REV_AT_EPOCH":572,"BSTAR":-0.0001889063,"MEAN_MOTION_DOT":-5.458e-5,"MEAN_MOTION_DDOT":0},{"OBJECT_NAME":"ELECTRON KICK STAGE R\/B","OBJECT_ID":"2024-047B","EPOCH":"2026-03-09T21:11:54.433824","MEAN_MOTION":15.27307897,"ECCENTRICITY":0.00092426,"INCLINATION":97.6338,"RA_OF_ASC_NODE":46.9382,"ARG_OF_PERICENTER":20.6031,"MEAN_ANOMALY":339.5579,"EPHEMERIS_TYPE":0,"CLASSIFICATION_TYPE":"U","NORAD_CAT_ID":59225,"ELEMENT_SET_NO":999,"REV_AT_EPOCH":10999,"BSTAR":0.00091229405,"MEAN_MOTION_DOT":0.00024409,"MEAN_MOTION_DDOT":0}]
